GLOBALSTAR M084         
1 38040U 11080A   25106.80566088 -.00000078  00000+0  14649-3 0  9992
2 38040  52.0002 235.3409 0000442 141.5073  22.9215 12.62264940614911
GLOBALSTAR M080         
1 38041U 11080B   25106.85250868 -.00000075  00000+0  16195-3 0  9999
2 38041  52.0055 236.7828 0000692 157.3795 340.7476 12.62291913615183
GLOBALSTAR M082         
1 38042U 11080C   25107.57870118 -.00000065  00000+0  21482-3 0  9990
2 38042  52.0065 190.0129 0000713  91.1655  48.1145 12.62265348616013
GLOBALSTAR M092         
1 38043U 11080D   25107.78372553 -.00000057  00000+0  26090-3 0  9995
2 38043  52.0079 279.7619 0000717 102.9065   8.9122 12.62263187614531
GLOBALSTAR M090         
1 38044U 11080E   25107.69053889 -.00000062  00000+0  23222-3 0  9994
2 38044  51.9873 183.5588 0000574 112.2219  55.3053 12.62269374616013
GLOBALSTAR M086         
1 38045U 11080F   25107.71665152 -.00000075  00000+0  15894-3 0  9990
2 38045  51.9886 184.0255 0001186 167.3764 359.2837 12.62269429616029
GLOBALSTAR M097         
1 39072U 13005A   25106.99391617 -.00000123  00000+0 -10771-3 0  9995
2 39072  52.0026 100.7084 0000451 103.5051 256.5866 12.62271708563089
GLOBALSTAR M093         
1 39073U 13005B   25106.96725697 -.00000107  00000+0 -17346-4 0  9990
2 39073  51.9794  94.1884 0000428  95.9402 264.1513 12.62263806563031
